CCSDS_OMM_VERS = 2.0
CREATION_DATE  = 
ORIGINATOR     = 

OBJECT_NAME    = COSMOS 2058
OBJECT_ID      = 1990-010A
CENTER_NAME    = EARTH
REF_FRAME      = TEME
TIME_SYSTEM    = UTC
MEAN_ELEMENT_THEORY = SGP/SGP4

EPOCH          = 2026-03-31T07:07:52.927968
MEAN_MOTION    = 15.11526225
ECCENTRICITY   = .00075863
INCLINATION    = 82.4706
RA_OF_ASC_NODE = 26.1364
ARG_OF_PERICENTER = 256.1091
MEAN_ANOMALY   = 103.9296

EPHEMERIS_TYPE = 0
CLASSIFICATION_TYPE = U
NORAD_CAT_ID   = 20465
ELEMENT_SET_NO = 999
REV_AT_EPOCH   = 94550
BSTAR          = .37463845E-3
MEAN_MOTION_DOT = .6378E-4
MEAN_MOTION_DDOT = 0

CCSDS_OMM_VERS = 2.0
CREATION_DATE  = 
ORIGINATOR     = 

OBJECT_NAME    = SL-14 R/B
OBJECT_ID      = 1990-010B
CENTER_NAME    = EARTH
REF_FRAME      = TEME
TIME_SYSTEM    = UTC
MEAN_ELEMENT_THEORY = SGP/SGP4

EPOCH          = 2026-03-31T09:42:35.821728
MEAN_MOTION    = 14.83590088
ECCENTRICITY   = .00187346
INCLINATION    = 82.5000
RA_OF_ASC_NODE = 246.9855
ARG_OF_PERICENTER = 225.3588
MEAN_ANOMALY   = 134.6101

EPHEMERIS_TYPE = 0
CLASSIFICATION_TYPE = U
NORAD_CAT_ID   = 20466
ELEMENT_SET_NO = 999
REV_AT_EPOCH   = 93170
BSTAR          = .80394511E-4
MEAN_MOTION_DOT = .688E-5
MEAN_MOTION_DDOT = 0

CCSDS_OMM_VERS = 2.0
CREATION_DATE  = 
ORIGINATOR     = 

OBJECT_NAME    = SL-14 R/B
OBJECT_ID      = 1990-018B
CENTER_NAME    = EARTH
REF_FRAME      = TEME
TIME_SYSTEM    = UTC
MEAN_ELEMENT_THEORY = SGP/SGP4

EPOCH          = 2026-03-31T13:52:41.114496
MEAN_MOTION    = 14.82167205
ECCENTRICITY   = .00167224
INCLINATION    = 82.5240
RA_OF_ASC_NODE = 202.6353
ARG_OF_PERICENTER = 24.7618
MEAN_ANOMALY   = 335.4395

EPHEMERIS_TYPE = 0
CLASSIFICATION_TYPE = U
NORAD_CAT_ID   = 20511
ELEMENT_SET_NO = 999
REV_AT_EPOCH   = 92582
BSTAR          = .73529447E-4
MEAN_MOTION_DOT = .61E-5
MEAN_MOTION_DDOT = 0

CCSDS_OMM_VERS = 2.0
CREATION_DATE  = 
ORIGINATOR     = 

OBJECT_NAME    = HST
OBJECT_ID      = 1990-037B
CENTER_NAME    = EARTH
REF_FRAME      = TEME
TIME_SYSTEM    = UTC
MEAN_ELEMENT_THEORY = SGP/SGP4

EPOCH          = 2026-03-31T12:54:49.735296
MEAN_MOTION    = 15.29831769
ECCENTRICITY   = .00019078
INCLINATION    = 28.4719
RA_OF_ASC_NODE = 250.9188
ARG_OF_PERICENTER = 20.3048
MEAN_ANOMALY   = 339.7623

EPHEMERIS_TYPE = 0
CLASSIFICATION_TYPE = U
NORAD_CAT_ID   = 20580
ELEMENT_SET_NO = 999
REV_AT_EPOCH   = 77666
BSTAR          = .34523327E-3
MEAN_MOTION_DOT = .10505E-3
MEAN_MOTION_DDOT = 0

CCSDS_OMM_VERS = 2.0
CREATION_DATE  = 
ORIGINATOR     = 

OBJECT_NAME    = SL-16 R/B
OBJECT_ID      = 1990-046B
CENTER_NAME    = EARTH
REF_FRAME      = TEME
TIME_SYSTEM    = UTC
MEAN_ELEMENT_THEORY = SGP/SGP4

EPOCH          = 2026-03-30T21:42:49.040928
MEAN_MOTION    = 14.15017553
ECCENTRICITY   = .0016409
INCLINATION    = 70.9980
RA_OF_ASC_NODE = 253.3538
ARG_OF_PERICENTER = 271.8844
MEAN_ANOMALY   = 88.0400

EPHEMERIS_TYPE = 0
CLASSIFICATION_TYPE = U
NORAD_CAT_ID   = 20625
ELEMENT_SET_NO = 999
REV_AT_EPOCH   = 85139
BSTAR          = .11922E-3
MEAN_MOTION_DOT = .183E-5
MEAN_MOTION_DDOT = 0

CCSDS_OMM_VERS = 2.0
CREATION_DATE  = 
ORIGINATOR     = 

OBJECT_NAME    = COSMOS 2084
OBJECT_ID      = 1990-055A
CENTER_NAME    = EARTH
REF_FRAME      = TEME
TIME_SYSTEM    = UTC
MEAN_ELEMENT_THEORY = SGP/SGP4

EPOCH          = 2026-03-31T12:07:15.398976
MEAN_MOTION    = 15.05777773
ECCENTRICITY   = .0013555
INCLINATION    = 62.7893
RA_OF_ASC_NODE = 261.1644
ARG_OF_PERICENTER = 197.0722
MEAN_ANOMALY   = 162.9924

EPHEMERIS_TYPE = 0
CLASSIFICATION_TYPE = U
NORAD_CAT_ID   = 20663
ELEMENT_SET_NO = 999
REV_AT_EPOCH   = 93960
BSTAR          = .2943201E-3
MEAN_MOTION_DOT = .4093E-4
MEAN_MOTION_DDOT = 0

CCSDS_OMM_VERS = 2.0
CREATION_DATE  = 
ORIGINATOR     = 

OBJECT_NAME    = SL-6 R/B(2)
OBJECT_ID      = 1990-055D
CENTER_NAME    = EARTH
REF_FRAME      = TEME
TIME_SYSTEM    = UTC
MEAN_ELEMENT_THEORY = SGP/SGP4

EPOCH          = 2026-03-31T12:25:21.840096
MEAN_MOTION    = 15.03701884
ECCENTRICITY   = .00283841
INCLINATION    = 62.7835
RA_OF_ASC_NODE = 179.6155
ARG_OF_PERICENTER = 351.9678
MEAN_ANOMALY   = 8.0962

EPHEMERIS_TYPE = 0
CLASSIFICATION_TYPE = U
NORAD_CAT_ID   = 20666
ELEMENT_SET_NO = 999
REV_AT_EPOCH   = 94147
BSTAR          = .22139347E-3
MEAN_MOTION_DOT = .2873E-4
MEAN_MOTION_DDOT = 0

CCSDS_OMM_VERS = 2.0
CREATION_DATE  = 
ORIGINATOR     = 

OBJECT_NAME    = SL-8 R/B
OBJECT_ID      = 1990-078B
CENTER_NAME    = EARTH
REF_FRAME      = TEME
TIME_SYSTEM    = UTC
MEAN_ELEMENT_THEORY = SGP/SGP4

EPOCH          = 2026-03-31T08:12:49.460832
MEAN_MOTION    = 14.89705989
ECCENTRICITY   = .03581109
INCLINATION    = 82.9028
RA_OF_ASC_NODE = 231.8249
ARG_OF_PERICENTER = 300.9520
MEAN_ANOMALY   = 55.6958

EPHEMERIS_TYPE = 0
CLASSIFICATION_TYPE = U
NORAD_CAT_ID   = 20775
ELEMENT_SET_NO = 999
REV_AT_EPOCH   = 81252
BSTAR          = .41421975E-3
MEAN_MOTION_DOT = .13982E-3
MEAN_MOTION_DDOT = 0

CCSDS_OMM_VERS = 2.0
CREATION_DATE  = 
ORIGINATOR     = 

OBJECT_NAME    = SL-8 R/B
OBJECT_ID      = 1991-006B
CENTER_NAME    = EARTH
REF_FRAME      = TEME
TIME_SYSTEM    = UTC
MEAN_ELEMENT_THEORY = SGP/SGP4

EPOCH          = 2026-03-31T11:28:14.065248
MEAN_MOTION    = 13.77497803
ECCENTRICITY   = .00216679
INCLINATION    = 82.9441
RA_OF_ASC_NODE = 153.8470
ARG_OF_PERICENTER = 337.5771
MEAN_ANOMALY   = 34.0245

EPHEMERIS_TYPE = 0
CLASSIFICATION_TYPE = U
NORAD_CAT_ID   = 21088
ELEMENT_SET_NO = 999
REV_AT_EPOCH   = 76707
BSTAR          = .12043349E-3
MEAN_MOTION_DOT = .135E-5
MEAN_MOTION_DDOT = 0

CCSDS_OMM_VERS = 2.0
CREATION_DATE  = 
ORIGINATOR     = 

OBJECT_NAME    = OKEAN-3
OBJECT_ID      = 1991-039A
CENTER_NAME    = EARTH
REF_FRAME      = TEME
TIME_SYSTEM    = UTC
MEAN_ELEMENT_THEORY = SGP/SGP4

EPOCH          = 2026-03-31T02:09:04.781088
MEAN_MOTION    = 15.04929646
ECCENTRICITY   = .00124371
INCLINATION    = 82.5158
RA_OF_ASC_NODE = 316.1083
ARG_OF_PERICENTER = 257.8124
MEAN_ANOMALY   = 102.1710

EPHEMERIS_TYPE = 0
CLASSIFICATION_TYPE = U
NORAD_CAT_ID   = 21397
ELEMENT_SET_NO = 999
REV_AT_EPOCH   = 86825
BSTAR          = .25540119E-3
MEAN_MOTION_DOT = .3649E-4
MEAN_MOTION_DDOT = 0

CCSDS_OMM_VERS = 2.0
CREATION_DATE  = 
ORIGINATOR     = 

OBJECT_NAME    = COSMOS 2151
OBJECT_ID      = 1991-042A
CENTER_NAME    = EARTH
REF_FRAME      = TEME
TIME_SYSTEM    = UTC
MEAN_ELEMENT_THEORY = SGP/SGP4

EPOCH          = 2026-03-31T13:28:33.401280
MEAN_MOTION    = 15.00202169
ECCENTRICITY   = .00120604
INCLINATION    = 82.4949
RA_OF_ASC_NODE = 62.5712
ARG_OF_PERICENTER = 354.4329
MEAN_ANOMALY   = 5.6759

EPHEMERIS_TYPE = 0
CLASSIFICATION_TYPE = U
NORAD_CAT_ID   = 21422
ELEMENT_SET_NO = 999
REV_AT_EPOCH   = 86647
BSTAR          = .21771964E-3
MEAN_MOTION_DOT = .2751E-4
MEAN_MOTION_DDOT = 0

CCSDS_OMM_VERS = 2.0
CREATION_DATE  = 
ORIGINATOR     = 

OBJECT_NAME    = SL-14 R/B
OBJECT_ID      = 1991-042B
CENTER_NAME    = EARTH
REF_FRAME      = TEME
TIME_SYSTEM    = UTC
MEAN_ELEMENT_THEORY = SGP/SGP4

EPOCH          = 2026-03-31T13:38:32.472960
MEAN_MOTION    = 14.81852312
ECCENTRICITY   = .00174445
INCLINATION    = 82.4958
RA_OF_ASC_NODE = 199.6709
ARG_OF_PERICENTER = 164.6246
MEAN_ANOMALY   = 195.5502

EPHEMERIS_TYPE = 0
CLASSIFICATION_TYPE = U
NORAD_CAT_ID   = 21423
ELEMENT_SET_NO = 999
REV_AT_EPOCH   = 85631
BSTAR          = .77159997E-4
MEAN_MOTION_DOT = .635E-5
MEAN_MOTION_DDOT = 0

