COSMOS 2058             
1 20465U 90010A   26090.29714037  .00006378  00000+0  37464-3 0  9997
2 20465  82.4706  26.1364 0007586 256.1091 103.9296 15.11526225945501
SL-14 R/B               
1 20466U 90010B   26090.40458127  .00000688  00000+0  80395-4 0  9996
2 20466  82.5000 246.9855 0018734 225.3588 134.6101 14.83590088931702
SL-14 R/B               
1 20511U 90018B   26090.57825364  .00000610  00000+0  73529-4 0  9990
2 20511  82.5240 202.6353 0016722  24.7618 335.4395 14.82167205925823
HST                     
1 20580U 90037B   26090.53807564  .00010505  00000+0  34523-3 0  9999
2 20580  28.4719 250.9188 0001907  20.3048 339.7623 15.29831769776661
SL-16 R/B               
1 20625U 90046B   26089.90473427  .00000183  00000+0  11922-3 0  9994
2 20625  70.9980 253.3538 0016409 271.8844  88.0400 14.15017553851391
COSMOS 2084             
1 20663U 90055A   26090.50503934  .00004093  00000+0  29432-3 0  9990
2 20663  62.7893 261.1644 0013555 197.0722 162.9924 15.05777773939604
SL-6 R/B(2)             
1 20666U 90055D   26090.51761389  .00002873  00000+0  22139-3 0  9995
2 20666  62.7835 179.6155 0028384 351.9678   8.0962 15.03701884941478
SL-8 R/B                
1 20775U 90078B   26090.34223913  .00013982  00000+0  41422-3 0  9997
2 20775  82.9028 231.8249 0358110 300.9520  55.6958 14.89705989812524
SL-8 R/B                
1 21088U 91006B   26090.47794057  .00000135  00000+0  12043-3 0  9996
2 21088  82.9441 153.8470 0021667 337.5771  34.0245 13.77497803767076
OKEAN-3                 
1 21397U 91039A   26090.08963867  .00003649  00000+0  25540-3 0  9998
2 21397  82.5158 316.1083 0012437 257.8124 102.1710 15.04929646868258
COSMOS 2151             
1 21422U 91042A   26090.56149770  .00002751  00000+0  21772-3 0  9999
2 21422  82.4949  62.5712 0012060 354.4329   5.6759 15.00202169866470
SL-14 R/B               
1 21423U 91042B   26090.56843140  .00000635  00000+0  77160-4 0  9994
2 21423  82.4958 199.6709 0017444 164.6246 195.5502 14.81852312856315
